GLOBALSTAR M073         
1 37193U 10054F   25041.55916045 -.00000090  00000+0  76037-4 0  9996
2 37193  52.0057 120.8149 0000759 107.9507   0.9861 12.62263097661846
GLOBALSTAR M083         
1 37739U 11033A   25041.50405860 -.00000095  00000+0  46812-4 0  9996
2 37739  51.9859  69.8837 0000286  92.5678  67.4026 12.62271449630857
GLOBALSTAR M088         
1 37740U 11033B   25041.55924226 -.00000086  00000+0  10054-3 0  9993
2 37740  51.9761 335.3153 0000512  48.5955 122.4641 12.62273912626693
GLOBALSTAR M091         
1 37741U 11033C   25041.49355240 -.00000067  00000+0  20382-3 0  9995
2 37741  52.0006 298.8471 0000612  45.7123 125.8641 12.62264534627183
GLOBALSTAR M085         
1 37742U 11033D   25041.32173816 -.00000072  00000+0  17822-3 0  9996
2 37742  51.9849 250.5198 0000833  69.2347 101.1323 12.62265359627676
GLOBALSTAR M081         
1 37743U 11033E   25041.55179476 -.00000063  00000+0  22862-3 0  9990
2 37743  51.9937 252.5264 0001032  67.7384 309.5401 12.62260617627850
GLOBALSTAR M089         
1 37744U 11033F   25041.52371921 -.00000104  00000+0 -28652-6 0  9990
2 37744  51.9908 206.8626 0001208  98.5133 330.3503 12.62266177628697
